IRIDIUM 106             
1 41917U 17003A   26156.30460863  .00000025  00000+0  18782-5 0  9990
2 41917  86.3961  93.5234 0001818  78.9499 281.1902 14.34217640491501
IRIDIUM 103             
1 41918U 17003B   26156.08261722  .00000126  00000+0  37976-4 0  9996
2 41918  86.3959  93.5155 0002478  82.8722 277.2756 14.34218775491498
IRIDIUM 109             
1 41919U 17003C   26156.08896217  .00000033  00000+0  47418-5 0  9990
2 41919  86.3961  93.5725 0002324  85.2543 274.8919 14.34217527491468
IRIDIUM 102             
1 41920U 17003D   26156.26655368  .00000139  00000+0  42638-4 0  9997
2 41920  86.3956  93.4221 0002274  86.1804 273.9651 14.34217104491574
IRIDIUM 105             
1 41921U 17003E   26155.73678919  .00000326  00000+0  10915-3 0  9996
2 41921  86.3970  62.0751 0002461  87.3876 272.7601 14.34224763493350
IRIDIUM 104             
1 41922U 17003F   26156.06993476  .00000051  00000+0  11260-4 0  9992
2 41922  86.3959  93.5467 0002534  85.2145 274.9340 14.34217523491536
IRIDIUM 114             
1 41923U 17003G   26156.07627662  .00000092  00000+0  25768-4 0  9998
2 41923  86.3958  93.5271 0002424  85.1403 275.0070 14.34217842491517
IRIDIUM 108             
1 41924U 17003H   26155.75572170  .00000019  00000+0 -29049-6 0  9994
2 41924  86.3965  61.9579 0002236  88.7126 271.4326 14.34218363493322
IRIDIUM 112             
1 41925U 17003J   26156.27289467  .00000119  00000+0  35508-4 0  9992
2 41925  86.3956  93.2878 0002379  87.4834 272.6634 14.34218699491564
IRIDIUM 111             
1 41926U 17003K   26156.26021183  .00000051  00000+0  10997-4 0  9991
2 41926  86.3956  93.3632 0002298  83.4762 276.6696 14.34217770491549
IRIDIUM 113             
1 42803U 17039A   26154.56572926  .00000075  00000+0  19665-4 0  9999
2 42803  86.3964 327.8750 0002357  90.6635 269.4831 14.34218836469230
IRIDIUM 123             
1 42804U 17039B   26156.28165402  .00000075  00000+0  19677-4 0  9991
2 42804  86.3974 358.6152 0002129  83.4035 276.7404 14.34217578468240
IRIDIUM 120             
1 42805U 17039C   26156.23382548  .00000250  00000+0  82121-4 0  9998
2 42805  86.3952 326.9609 0002017  93.6467 266.4959 14.34222377469469
IRIDIUM 115             
1 42806U 17039D   26156.19366622  .00000327  00000+0  91357-4 0  9995
2 42806  86.4490 327.1050 0002077  85.6139 274.5299 14.43282293472536
IRIDIUM 118             
1 42807U 17039E   26156.03429348 -.00000017  00000+0 -13294-4 0  9996
2 42807  86.3972 358.7168 0002113  89.0439 271.0999 14.34217293468209
IRIDIUM 117             
1 42808U 17039F   26156.26262652 -.00000005  00000+0 -88538-5 0  9996
2 42808  86.3969 358.5790 0002079  85.0760 275.0674 14.34217470468266
IRIDIUM 126             
1 42809U 17039G   26156.07868980  .00000184  00000+0  58757-4 0  9997
2 42809  86.3976 358.7070 0002264  84.2556 275.8898 14.34217487468217
IRIDIUM 124             
1 42810U 17039H   26156.12748393  .00000391  00000+0  11018-3 0  9998
2 42810  86.4475 295.4028 0002227  91.4545 268.6911 14.43282020473375
IRIDIUM 128             
1 42811U 17039J   26156.06942908  .00000017  00000+0 -82719-6 0  9995
2 42811  86.3975  30.2166 0001891  85.1376 275.0035 14.34217601468248
IRIDIUM 121             
1 42812U 17039K   26156.02795084 -.00000042  00000+0 -21938-4 0  9996
2 42812  86.3972 358.7555 0002000  88.6339 271.5086 14.34217234468087
IRIDIUM 133             
1 42955U 17061A   26156.03136700  .00000108  00000+0  31538-4 0  9992
2 42955  86.3981  30.3497 0002141  85.3548 274.7893 14.34215919453033
IRIDIUM 100             
1 42956U 17061B   26156.09479979  .00000023  00000+0  11367-5 0  9992
2 42956  86.3975  30.2419 0002052  85.2051 274.9380 14.34217519453041
IRIDIUM 122             
1 42957U 17061C   26156.06308680  .00000006  00000+0 -49669-5 0  9998
2 42957  86.3975  30.2556 0002094  83.6541 276.4894 14.34217565453044
IRIDIUM 129             
1 42958U 17061D   26156.08845728  .00000073  00000+0  19123-4 0  9994
2 42958  86.3979  30.3123 0002400  89.0992 271.0479 14.34216936453064
IRIDIUM 119             
1 42959U 17061E   26156.05674467  .00000038  00000+0  65225-5 0  9998
2 42959  86.3979  30.3211 0002292  82.9613 277.1843 14.34217438453075
IRIDIUM 107             
1 42960U 17061F   26156.07577110 -.00000064  00000+0 -29973-4 0  9999
2 42960  86.3977  30.3336 0001969  77.8577 282.2839 14.34217402453089
IRIDIUM 132             
1 42961U 17061G   26156.08211473  .00000103  00000+0  29622-4 0  9991
2 42961  86.3979  30.3112 0002222  84.6593 275.4856 14.34217906453083
IRIDIUM 136             
1 42962U 17061H   26156.04405427  .00000252  00000+0  83038-4 0  9998
2 42962  86.3980  30.3336 0002242  84.4166 275.7286 14.34220241453097
IRIDIUM 139             
1 42963U 17061J   26156.05040119  .00000086  00000+0  23685-4 0  9990
2 42963  86.3982  30.3925 0002110  83.6795 276.4641 14.34216619453106
IRIDIUM 125             
1 42964U 17061K   26156.03771710  .00000122  00000+0  36523-4 0  9993
2 42964  86.3982  30.4590 0002538  75.1260 285.0217 14.34218111453118
