OBJECT_NAME,OBJECT_ID,EPOCH,MEAN_MOTION,ECCENTRICITY,INCLINATION,RA_OF_ASC_NODE,ARG_OF_PERICENTER,MEAN_ANOMALY,EPHEMERIS_TYPE,CLASSIFICATION_TYPE,NORAD_CAT_ID,ELEMENT_SET_NO,REV_AT_EPOCH,BSTAR,MEAN_MOTION_DOT,MEAN_MOTION_DDOT
IRIDIUM 106,2017-003A,2026-06-05T07:18:38.185632,14.34217640,.00018182,86.3961,93.5234,78.9499,281.1902,0,U,41917,999,49150,.1878172E-5,.25E-6,0
IRIDIUM 103,2017-003B,2026-06-05T01:58:58.127808,14.34218775,.00024783,86.3959,93.5155,82.8722,277.2756,0,U,41918,999,49149,.37975542E-4,.126E-5,0
IRIDIUM 109,2017-003C,2026-06-05T02:08:06.331488,14.34217527,.00023245,86.3961,93.5725,85.2543,274.8919,0,U,41919,999,49146,.4741797E-5,.33E-6,0
IRIDIUM 102,2017-003D,2026-06-05T06:23:50.237952,14.34217104,.00022746,86.3956,93.4221,86.1804,273.9651,0,U,41920,999,49157,.42637665E-4,.139E-5,0
IRIDIUM 105,2017-003E,2026-06-04T17:40:58.586016,14.34224763,.0002461,86.3970,62.0751,87.3876,272.7601,0,U,41921,999,49335,.10915E-3,.326E-5,0
IRIDIUM 104,2017-003F,2026-06-05T01:40:42.363264,14.34217523,.00025344,86.3959,93.5467,85.2145,274.9340,0,U,41922,999,49153,.11259759E-4,.51E-6,0
IRIDIUM 114,2017-003G,2026-06-05T01:49:50.299968,14.34217842,.00024242,86.3958,93.5271,85.1403,275.0070,0,U,41923,999,49151,.25767562E-4,.92E-6,0
IRIDIUM 108,2017-003H,2026-06-04T18:08:14.354880,14.34218363,.00022366,86.3965,61.9579,88.7126,271.4326,0,U,41924,999,49332,-.290485E-6,.19E-6,0
IRIDIUM 112,2017-003J,2026-06-05T06:32:58.099488,14.34218699,.00023799,86.3956,93.2878,87.4834,272.6634,0,U,41925,999,49156,.35507753E-4,.119E-5,0
IRIDIUM 111,2017-003K,2026-06-05T06:14:42.302112,14.34217770,.00022986,86.3956,93.3632,83.4762,276.6696,0,U,41926,999,49154,.10997202E-4,.51E-6,0
IRIDIUM 113,2017-039A,2026-06-03T13:34:39.008064,14.34218836,.00023578,86.3964,327.8750,90.6635,269.4831,0,U,42803,999,46923,.19664925E-4,.75E-6,0
IRIDIUM 123,2017-039B,2026-06-05T06:45:34.907328,14.34217578,.00021294,86.3974,358.6152,83.4035,276.7404,0,U,42804,999,46824,.19676919E-4,.75E-6,0
IRIDIUM 120,2017-039C,2026-06-05T05:36:42.521472,14.34222377,.00020176,86.3952,326.9609,93.6467,266.4959,0,U,42805,999,46946,.82120507E-4,.25E-5,0
IRIDIUM 115,2017-039D,2026-06-05T04:38:52.761408,14.43282293,.0002077,86.4490,327.1050,85.6139,274.5299,0,U,42806,999,47253,.91356543E-4,.327E-5,0
IRIDIUM 118,2017-039E,2026-06-05T00:49:22.956672,14.34217293,.00021138,86.3972,358.7168,89.0439,271.0999,0,U,42807,999,46820,-.13293725E-4,-.17E-6,0
IRIDIUM 117,2017-039F,2026-06-05T06:18:10.931328,14.34217470,.00020793,86.3969,358.5790,85.0760,275.0674,0,U,42808,999,46826,-.8853844E-5,-.5E-7,0
IRIDIUM 126,2017-039G,2026-06-05T01:53:18.798720,14.34217487,.00022643,86.3976,358.7070,84.2556,275.8898,0,U,42809,999,46821,.58756791E-4,.184E-5,0
IRIDIUM 124,2017-039H,2026-06-05T03:03:34.611552,14.43282020,.00022272,86.4475,295.4028,91.4545,268.6911,0,U,42810,999,47337,.11017705E-3,.391E-5,0
IRIDIUM 128,2017-039J,2026-06-05T01:39:58.672512,14.34217601,.00018912,86.3975,30.2166,85.1376,275.0035,0,U,42811,999,46824,-.82719E-6,.17E-6,0
IRIDIUM 121,2017-039K,2026-06-05T00:40:14.952576,14.34217234,.00020008,86.3972,358.7555,88.6339,271.5086,0,U,42812,999,46808,-.21937702E-4,-.42E-6,0
IRIDIUM 133,2017-061A,2026-06-05T00:45:10.108800,14.34215919,.00021411,86.3981,30.3497,85.3548,274.7893,0,U,42955,999,45303,.31537635E-4,.108E-5,0
IRIDIUM 100,2017-061B,2026-06-05T02:16:30.701856,14.34217519,.00020526,86.3975,30.2419,85.2051,274.9380,0,U,42956,999,45304,.1136734E-5,.23E-6,0
IRIDIUM 122,2017-061C,2026-06-05T01:30:50.699520,14.34217565,.00020945,86.3975,30.2556,83.6541,276.4894,0,U,42957,999,45304,-.4966856E-5,.6E-7,0
IRIDIUM 129,2017-061D,2026-06-05T02:07:22.708992,14.34216936,.00024004,86.3979,30.3123,89.0992,271.0479,0,U,42958,999,45306,.19122633E-4,.73E-6,0
IRIDIUM 119,2017-061E,2026-06-05T01:21:42.739488,14.34217438,.00022927,86.3979,30.3211,82.9613,277.1843,0,U,42959,999,45307,.6522452E-5,.38E-6,0
IRIDIUM 107,2017-061F,2026-06-05T01:49:06.623040,14.34217402,.00019694,86.3977,30.3336,77.8577,282.2839,0,U,42960,999,45308,-.29972651E-4,-.64E-6,0
IRIDIUM 132,2017-061G,2026-06-05T01:58:14.712672,14.34217906,.00022224,86.3979,30.3112,84.6593,275.4856,0,U,42961,999,45308,.29621789E-4,.103E-5,0
IRIDIUM 136,2017-061H,2026-06-05T01:03:26.288928,14.34220241,.00022421,86.3980,30.3336,84.4166,275.7286,0,U,42962,999,45309,.83038139E-4,.252E-5,0
IRIDIUM 139,2017-061J,2026-06-05T01:12:34.662816,14.34216619,.00021101,86.3982,30.3925,83.6795,276.4641,0,U,42963,999,45310,.23685144E-4,.86E-6,0
IRIDIUM 125,2017-061K,2026-06-05T00:54:18.757440,14.34218111,.00025383,86.3982,30.4590,75.1260,285.0217,0,U,42964,999,45311,.36522648E-4,.122E-5,0
